NORAD_CAT_ID,OBJECT_NAME,OBJECT_TYPE,EPOCH,MEAN_MOTION,ECCENTRICITY,INCLINATION,RA_OF_ASC_NODE,ARG_OF_PERICENTER,MEAN_ANOMALY,BSTAR,MEAN_MOTION_DOT,MEAN_MOTION_DDOT,TLE_LINE0,TLE_LINE1,TLE_LINE2,SEMIMAJOR_AXIS,PERIOD,APOGEE,PERIGEE,DECAYED
52560.0,STARLINK-3956,PAYLOAD,2023-04-02 18:02:19,15.08848279,0.0001004,53.2149,251.2372,97.0672,263.0435,0.00082919,0.00012936,0.0,0 STARLINK-3956,1 52560U 22051AD  23092.75161108  .00012936  00000-0  82919-3 0  9996,2 52560  53.2149 251.2372 0001004  97.0672 263.0435 15.08848279 49752,6917.855,95.437,540.415,539.026,0.0
52560.0,STARLINK-3956,PAYLOAD,2023-04-03 11:31:33,15.08845343,0.0001127,53.2153,247.9697,77.1283,282.9835,0.0003636,5.504e-05,0.0,0 STARLINK-3956,1 52560U 22051AD  23093.48025117  .00005504  00000-0  36360-3 0  9998,2 52560  53.2153 247.9697 0001127  77.1283 282.9835 15.08845343 49935,6917.864,95.437,540.509,538.949,0.0
52560.0,STARLINK-3956,PAYLOAD,2023-04-03 16:17:43,15.08843841,0.000148,53.2164,247.0764,76.4548,283.6609,0.00025175,3.721e-05,0.0,0 STARLINK-3956,1 52560U 22051AD  23093.67897243  .00003721  00000-0  25175-3 0  9997,2 52560  53.2164 247.0764 0001480  76.4548 283.6609 15.08843841 49894,6917.869,95.437,540.757,538.71,0.0
52560.0,STARLINK-3956,PAYLOAD,2023-04-04 03:25:25,15.08843092,0.0001376,53.2161,244.9946,74.3008,285.8136,0.0001836,2.636e-05,0.0,0 STARLINK-3956,1 52560U 22051AD  23094.14265262  .00002636  00000-0  18360-3 0  9992,2 52560  53.2161 244.9946 0001376  74.3008 285.8136 15.08843092 50036,6917.871,95.437,540.688,538.784,0.0
52560.0,STARLINK-3956,PAYLOAD,2023-04-04 20:54:39,15.08853065,0.0001415,53.2157,241.7239,67.9883,292.1259,0.00032386,4.872e-05,0.0,0 STARLINK-3956,1 52560U 22051AD  23094.87128679  .00004872  00000-0  32386-3 0  9990,2 52560  53.2157 241.7239 0001415  67.9883 292.1259 15.08853065 50076,6917.84,95.437,540.684,538.727,0.0
52560.0,STARLINK-3956,PAYLOAD,2023-04-05 14:23:54,15.08833462,0.0001414,53.2159,238.4521,64.2539,295.8599,-1.1053e-05,-4.64e-06,0.0,0 STARLINK-3956,1 52560U 22051AD  23095.59993685 -.00000464  00000-0 -11053-4 0  9991,2 52560  53.2159 238.4521 0001414  64.2539 295.8599 15.08833462 50180,6917.9,95.438,540.744,538.787,0.0
52560.0,STARLINK-3956,PAYLOAD,2023-04-05 15:59:17,15.08839565,0.000126,53.2168,238.1542,84.1437,275.9698,7.7734e-05,9.49e-06,0.0,0 STARLINK-3956,1 52560U 22051AD  23095.66617379  .00000949  00000-0  77734-4 0  9996,2 52560  53.2168 238.1542 0001260  84.1437 275.9698 15.08839565 50265,6917.882,95.438,540.618,538.875,0.0
52560.0,STARLINK-3956,PAYLOAD,2023-04-06 12:39:18,15.08839127,0.0001193,53.2158,234.2908,59.7924,300.3186,0.00011949,1.614e-05,0.0,0 STARLINK-3956,1 52560U 22051AD  23096.52729429  .00001614  00000-0  11949-3 0  9997,2 52560  53.2158 234.2908 0001193  59.7924 300.3186 15.08839127 50327,6917.883,95.438,540.573,538.923,0.0
52560.0,STARLINK-3956,PAYLOAD,2023-04-07 12:30:05,15.08847975,0.0001058,53.2159,229.8269,79.1661,280.945,0.00026553,3.942e-05,0.0,0 STARLINK-3956,1 52560U 22051AD  23097.52089294  .00003942  00000-0  26553-3 0  9990,2 52560  53.2159 229.8269 0001058  79.1661 280.9450 15.08847975 50543,6917.856,95.437,540.453,538.989,0.0
52560.0,STARLINK-3956,PAYLOAD,2023-04-07 20:27:00,15.08859268,0.0001283,53.2156,228.3375,99.5751,260.5386,0.0004192,6.393e-05,0.0,0 STARLINK-3956,1 52560U 22051AD  23097.85208606  .00006393  00000-0  41920-3 0  9994,2 52560  53.2156 228.3375 0001283  99.5751 260.5386 15.08859268 50593,6917.821,95.436,540.574,538.799,0.0
52560.0,STARLINK-3956,PAYLOAD,2023-04-08 12:20:52,15.08838032,0.0001188,53.2158,225.3662,97.2125,262.9002,-3.8725e-05,-9.04e-06,0.0,0 STARLINK-3956,1 52560U 22051AD  23098.51449274 -.00000904  00000-0 -38725-4 0  9990,2 52560  53.2158 225.3662 0001188  97.2125 262.9002 15.08838032 50693,6917.886,95.438,540.573,538.93,0.0
52560.0,STARLINK-3956,PAYLOAD,2023-04-09 10:36:16,15.0883823,9.92e-05,53.2154,221.2034,94.158,265.9526,0.00016543,2.346e-05,0.0,0 STARLINK-3956,1 52560U 22051AD  23099.44185538  .00002346  00000-0  16543-3 0  9996,2 52560  53.2154 221.2034 0000992  94.1580 265.9526 15.08838230 50762,6917.886,95.438,540.437,539.065,0.0
52560.0,STARLINK-3956,PAYLOAD,2023-04-09 18:33:11,15.08847116,0.0001062,53.2157,219.7159,92.1593,267.9521,0.00035141,5.31e-05,0.0,0 STARLINK-3956,1 52560U 22051AD  23099.77305163  .00005310  00000-0  35141-3 0  9999,2 52560  53.2157 219.7159 0001062  92.1593 267.9521 15.08847116 50889,6917.859,95.437,540.458,538.989,0.0
52560.0,STARLINK-3956,PAYLOAD,2023-04-10 07:16:17,15.08842191,8.24e-05,53.2157,217.339,99.7124,260.3961,0.00024648,3.637e-05,0.0,0 STARLINK-3956,1 52560U 22051AD  23100.30297488  .00003637  00000-0  24648-3 0  9991,2 52560  53.2157 217.3390 0000824  99.7124 260.3961 15.08842191 50960,6917.874,95.437,540.309,539.169,0.0
52560.0,STARLINK-3956,PAYLOAD,2023-04-10 10:27:03,15.08842977,7.5e-05,53.2156,216.7441,97.6489,262.4589,0.00022937,3.365e-05,0.0,0 STARLINK-3956,1 52560U 22051AD  23100.43545471  .00003365  00000-0  22937-3 0  9990,2 52560  53.2156 216.7441 0000750  97.6489 262.4589 15.08842977 50914,6917.871,95.437,540.255,539.217,0.0
52560.0,STARLINK-3956,PAYLOAD,2023-04-10 16:48:35,15.08855835,0.0001028,53.2153,215.5547,92.4014,267.7096,0.00057201,8.831e-05,0.0,0 STARLINK-3956,1 52560U 22051AD  23100.70041152  .00008831  00000-0  57201-3 0  9992,2 52560  53.2153 215.5547 0001028  92.4014 267.7096 15.08855835 50953,6917.832,95.437,540.408,538.986,0.0
52560.0,STARLINK-3956,PAYLOAD,2023-04-11 11:53:13,15.08847992,0.0001151,53.2129,211.9848,88.1173,271.9951,0.00028311,4.222e-05,0.0,0 STARLINK-3956,1 52560U 22051AD  23101.49529158  .00004222  00000-0  28311-3 0  9996,2 52560  53.2129 211.9848 0001151  88.1173 271.9951 15.08847992 51071,6917.856,95.437,540.517,538.925,0.0
52560.0,STARLINK-3956,PAYLOAD,2023-04-11 16:39:22,15.08852744,0.0001392,53.2132,211.0938,84.5092,275.6059,0.0003555,5.376e-05,0.0,0 STARLINK-3956,1 52560U 22051AD  23101.69400980  .00005376  00000-0  35550-3 0  9993,2 52560  53.2132 211.0938 0001392  84.5092 275.6059 15.08852744 51108,6917.841,95.437,540.669,538.743,0.0
52560.0,STARLINK-3956,PAYLOAD,2023-04-12 00:36:18,15.08842099,7.66e-05,53.2157,209.6061,106.8372,253.2704,7.2373e-05,8.64e-06,0.0,0 STARLINK-3956,1 52560U 22051AD  23102.02520983  .00000864  00000-0  72373-4 0  9999,2 52560  53.2157 209.6061 0000766 106.8372 253.2704 15.08842099 51222,6917.874,95.437,540.269,539.209,0.0
52560.0,STARLINK-3956,PAYLOAD,2023-04-12 13:19:23,15.08838778,9.82e-05,53.2139,207.2284,102.1896,257.9207,0.00011839,1.597e-05,0.0,0 STARLINK-3956,1 52560U 22051AD  23102.55513247  .00001597  00000-0  11839-3 0  9995,2 52560  53.2139 207.2284 0000982 102.1896 257.9207 15.08838778 51232,6917.884,95.438,540.428,539.07,0.0
52560.0,STARLINK-3956,PAYLOAD,2023-04-13 00:27:05,15.08832815,0.0001637,53.2147,205.1491,72.2943,287.8228,9.5755e-06,-1.36e-06,0.0,0 STARLINK-3956,1 52560U 22051AD  23103.01881784 -.00000136  00000-0  95755-5 0  9991,2 52560  53.2147 205.1491 0001637  72.2943 287.8228 15.08832815 51305,6917.902,95.438,540.9,538.635,0.0
52560.0,STARLINK-3956,PAYLOAD,2023-04-14 09:50:11,15.0884323,0.0001535,53.2126,198.9008,103.2663,256.8501,0.00027305,4.061e-05,0.0,0 STARLINK-3956,1 52560U 22051AD  23104.40985555  .00004061  00000-0  27305-3 0  9990,2 52560  53.2126 198.9008 0001535 103.2663 256.8501 15.08843230 51589,6917.871,95.437,540.797,538.674,0.0
52560.0,STARLINK-3956,PAYLOAD,2023-04-14 11:25:34,15.08844389,0.0001424,53.2132,198.6044,97.5267,262.5886,0.00031536,4.735e-05,0.0,0 STARLINK-3956,1 52560U 22051AD  23104.47609575  .00004735  00000-0  31536-3 0  9991,2 52560  53.2132 198.6044 0001424  97.5267 262.5886 15.08844389 51525,6917.867,95.437,540.717,538.747,0.0
52560.0,STARLINK-3956,PAYLOAD,2023-04-15 04:54:49,15.08838003,8.03e-05,53.215,195.3324,93.0584,267.05,0.00032526,4.892e-05,0.0,0 STARLINK-3956,1 52560U 22051AD  23105.20474108  .00004892  00000-0  32526-3 0  9999,2 52560  53.2150 195.3324 0000803  93.0584 267.0500 15.08838003 51702,6917.886,95.438,540.307,539.196,0.0
52560.0,STARLINK-3956,PAYLOAD,2023-04-15 12:51:45,15.08839331,0.0001112,53.2155,193.8453,93.13,266.982,0.00091494,0.00014303,0.0,0 STARLINK-3956,1 52560U 22051AD  23105.53594514  .00014303  00000-0  91494-3 0  9996,2 52560  53.2155 193.8453 0001112  93.1300 266.9820 15.08839331 51689,6917.882,95.438,540.517,538.978,0.0
52560.0,STARLINK-3956,PAYLOAD,2023-04-16 11:07:09,15.08853239,0.0001408,53.2171,189.6838,111.3049,248.8094,0.00064344,9.971e-05,0.0,0 STARLINK-3956,1 52560U 22051AD  23106.46330190  .00009971  00000-0  64344-3 0  9996,2 52560  53.2171 189.6838 0001408 111.3049 248.8094 15.08853239 51829,6917.84,95.437,540.679,538.731,0.0
52560.0,STARLINK-3956,PAYLOAD,2023-04-17 12:33:19,15.08841074,0.0001268,53.2159,184.925,110.2663,249.8466,9.1411e-05,1.167e-05,0.0,0 STARLINK-3956,1 52560U 22051AD  23107.52314235  .00001167  00000-0  91411-4 0  9991,2 52560  53.2159 184.9250 0001268 110.2663 249.8466 15.08841074 52059,6917.877,95.437,540.619,538.865,0.0
52560.0,STARLINK-3956,PAYLOAD,2023-04-17 14:08:42,15.08841009,0.0001258,53.2158,184.6277,109.7464,250.3664,8.2409e-05,1.024e-05,0.0,0 STARLINK-3956,1 52560U 22051AD  23107.58938219  .00001024  00000-0  82409-4 0  9990,2 52560  53.2158 184.6277 0001258 109.7464 250.3664 15.08841009 51992,6917.877,95.437,540.613,538.872,0.0
52560.0,STARLINK-3956,PAYLOAD,2023-04-18 09:13:20,15.08836621,0.0001117,53.2179,181.0608,105.8425,254.269,0.00015206,2.133e-05,0.0,0 STARLINK-3956,1 52560U 22051AD  23108.38426744  .00002133  00000-0  15206-3 0  9996,2 52560  53.2179 181.0608 0001117 105.8425 254.2690 15.08836621 52113,6917.891,95.438,540.528,538.983,0.0
52560.0,STARLINK-3956,PAYLOAD,2023-04-18 13:59:29,15.08849896,0.0001358,53.2158,180.1668,96.3575,263.7572,3.5906e-05,2.84e-06,0.0,0 STARLINK-3956,1 52560U 22051AD  23108.58298061  .00000284  00000-0  35906-4 0  9992,2 52560  53.2158 180.1668 0001358  96.3575 263.7572 15.08849896 52148,6917.85,95.437,540.655,538.776,0.0
